SMDC ONE 2.4            
1 39469U 13072H   26068.55980652  .00015821  00000+0  65974-3 0  9996
2 39469 120.4883 328.0945 0137633 267.6479  90.8828 15.15767863102719
STARLINK-6305           
1 56394U 23061W   26067.38444347  .00000730  00000+0  69101-4 0  9997
2 56394  43.0040 191.9609 0001466 265.0576  95.0099 15.02540998156707
